IRIDIUM 150             
1 43257U 18030J   24366.46550010  .00000599  00000+0  20690-3 0  9997
2 43257  86.3996 153.1635 0001923 100.5138 259.6274 14.34217237353821
IRIDIUM 143             
1 43258U 18030K   24365.67901713  .00001077  00000+0  37760-3 0  9998
2 43258  86.3999 153.5635 0001858 108.6141 251.5256 14.34222324353621
IRIDIUM 161             
1 43478U 18047C   24366.36149895  .00001202  00000+0  35137-3 0  9998
2 43478  86.4494 311.1309 0002249  86.2862 273.8596 14.43285719348289
IRIDIUM 152             
1 43479U 18047D   24365.72150657  .00000467  00000+0  15978-3 0  9999
2 43479  86.3969 311.2581 0002102  82.4186 277.7249 14.34218820346021
IRIDIUM 147             
1 43480U 18047E   24365.79761846  .00000530  00000+0  18205-3 0  9993
2 43480  86.3972 311.2220 0002399  77.7734 282.3730 14.34219478346039
IRIDIUM 110             
1 43481U 18047F   24365.87372911  .00000303  00000+0  10096-3 0  9992
2 43481  86.3973 311.2682 0002089  73.3651 286.7774 14.34217984346035
IRIDIUM 162             
1 43482U 18047G   24365.86987409  .00001195  00000+0  34921-3 0  9999
2 43482  86.4494 311.2339 0001982  79.2415 280.9009 14.43287514348202
IRIDIUM 160             
1 43569U 18061A   24365.88933111  .00000867  00000+0  30247-3 0  9996
2 43569  86.3968 279.6215 0002380  79.8398 280.3066 14.34220842336937
